STARLINK-1197
1 25199C 20012X   21325.11266389  .00008570  00000-0  57423-3 0  3259
2 25199  53.0523 232.7338 0002205  64.4485  48.1427 15.06387065    14
